     2.10           N: GPS NAV DATA                         RINEX VERSION / TYPE
teqc  2011Oct11                         20111023 09:34:07UTCPGM / RUN BY / DATE
    15                                                      LEAP SECONDS
Linux 2.4.20-8|Pentium IV|gcc -static|Linux|486/DX+         COMMENT
    2.5146D-08 -7.4506D-09 -1.1921D-07  1.1921D-07          ION ALPHA
    1.3107D+05 -1.6384D+04 -1.9661D+05 -6.5536D+04          ION BETA
   -2.793967723846D-09 0.000000000000D+00    61440     1659 DELTA-UTC: A0,A1,T,W
                                                            END OF HEADER
17 11 10 21 22  0  0.0 1.695454120636D-04-1.818989403546D-12 0.000000000000D+00
    1.100000000000D+02-6.493750000000D+01 4.564475843026D-09-7.959790665803D-02
   -3.358349204063D-06 6.672720424831D-03 9.289011359215D-06 5.153594535828D+03
    5.112000000000D+05-1.862645149231D-09 1.765036714281D+00 1.024454832077D-07
    9.615213959570D-01 2.047500000000D+02-2.403666914787D+00-8.172840431609D-09
   -7.393165097859D-11 1.000000000000D+00 1.658000000000D+03 0.000000000000D+00
    2.800000000000D+00 0.000000000000D+00-1.071020960808D-08 1.100000000000D+02
    5.040180000000D+05 4.000000000000D+00
20 11 10 21 22  0  0.0 5.475850775838D-05 5.684341886081D-13 0.000000000000D+00
    1.400000000000D+01 2.943750000000D+01 5.596304537118D-09 1.814583622543D+00
    1.363456249237D-06 4.650677321479D-03 5.170702934265D-06 5.153568578720D+03
    5.112000000000D+05-5.774199962616D-08-2.496879379311D+00-8.940696716309D-08
    9.320983727014D-01 2.631250000000D+02 1.259607056947D+00-8.663575158394D-09
   -3.392998474863D-11 1.000000000000D+00 1.658000000000D+03 0.000000000000D+00
    2.000000000000D+00 0.000000000000D+00-7.450580596924D-09 1.400000000000D+01
    5.040180000000D+05 4.000000000000D+00
 4 11 10 21 22  0  0.0 2.674469724298D-04 1.136868377216D-11 0.000000000000D+00
    5.100000000000D+01 2.765625000000D+01 5.148071580702D-09 1.777298103646D+00
    1.495704054832D-06 9.921941789798D-03 1.038238406181D-05 5.153730834961D+03
    5.112000000000D+05-3.110617399216D-07 2.780275280071D+00-1.676380634308D-08
    9.382195086770D-01 1.708437500000D+02 7.837922816489D-01-8.340704566681D-09
    2.910835533698D-10 1.000000000000D+00 1.658000000000D+03 0.000000000000D+00
    2.000000000000D+00 0.000000000000D+00-6.519258022308D-09 5.100000000000D+01
    5.040180000000D+05 4.000000000000D+00
 7 11 10 21 22  0  0.0 3.301072865725D-05 2.046363078989D-12 0.000000000000D+00
    6.100000000000D+01 5.009375000000D+01 4.025524822124D-09-2.930359463200D+00
    2.615153789520D-06 5.075430148281D-03 9.205192327499D-06 5.153635150909D+03
    5.112000000000D+05-7.823109626770D-08-3.499476341865D-01-2.980232238770D-08
    9.754552327687D-01 2.098750000000D+02-3.045377444377D+00-7.841755212009D-09
    2.175090601254D-10 1.000000000000D+00 1.658000000000D+03 0.000000000000D+00
    2.000000000000D+00 0.000000000000D+00-1.071020960808D-08 6.100000000000D+01
    5.055480000000D+05 4.000000000000D+00
23 11 10 21 22  0  0.0 2.659899182618D-04-3.183231456205D-12 0.000000000000D+00
    5.000000000000D+01-2.175000000000D+01 4.384111187257D-09-1.317524653722D+00
   -1.221895217896D-06 7.571361493319D-03 9.419396519661D-06 5.153720628738D+03
    5.112000000000D+05-3.352761268616D-08-1.396209481523D+00-1.788139343262D-07
    9.624879517837D-01 1.983750000000D+02-3.040139603709D+00-8.017833974968D-09
   -3.810873023872D-10 1.000000000000D+00 1.658000000000D+03 0.000000000000D+00
    2.000000000000D+00 0.000000000000D+00-2.002343535423D-08 5.000000000000D+01
    5.040180000000D+05 4.000000000000D+00
31 11 10 21 22  0  0.0 1.586191356182D-04 5.229594535194D-12 0.000000000000D+00
    7.700000000000D+01 6.721875000000D+01 3.951593171145D-09-2.931079490997D+00
    3.466382622719D-06 7.753768819384D-03 8.789822459221D-06 5.153760072708D+03
    5.112000000000D+05 1.005828380585D-07-3.480130581522D-01 3.352761268616D-08
    9.805721266850D-01 2.215937500000D+02-9.520423524311D-01-7.777466819854D-09
    2.260808457461D-10 1.000000000000D+00 1.658000000000D+03 0.000000000000D+00
    2.000000000000D+00 0.000000000000D+00-1.303851604462D-08 7.700000000000D+01
    5.040180000000D+05 4.000000000000D+00
10 11 10 21 22  0  0.0-1.683039590716D-05-1.023181539495D-12 0.000000000000D+00
    3.400000000000D+01 1.993750000000D+01 5.348079911852D-09 8.852988626283D-01
    1.294538378716D-06 1.061059406493D-02 5.273148417473D-06 5.153637811661D+03
    5.112000000000D+05 9.313225746155D-09-2.435183951666D+00 1.136213541031D-07
    9.479096644481D-01 2.704375000000D+02 7.108530338822D-01-8.731077970157D-09
   -2.064371703653D-10 1.000000000000D+00 1.658000000000D+03 0.000000000000D+00
    2.000000000000D+00 0.000000000000D+00-2.328306436539D-09 3.400000000000D+01
    5.040180000000D+05 4.000000000000D+00
30 11 10 21 22  0  0.0 6.537232547998D-05-7.844391802792D-12 0.000000000000D+00
    4.500000000000D+01-1.043750000000D+01 4.890203696613D-09 2.768489619962D-01
   -6.016343832016D-07 1.167980430182D-02 4.146248102188D-06 5.155434757233D+03
    5.112000000000D+05-2.011656761169D-07 5.844962672556D-01-9.313225746155D-08
    9.571941954603D-01 2.989375000000D+02 1.582353441064D+00-8.678575783231D-09
    9.143237995420D-11 1.000000000000D+00 1.658000000000D+03 0.000000000000D+00
    2.800000000000D+00 0.000000000000D+00-4.190951585770D-09 4.500000000000D+01
    5.040180000000D+05 4.000000000000D+00
 2 11 10 21 21 59 44.0 3.618975169957D-04 1.705302565824D-12 0.000000000000D+00
    2.000000000000D+01 3.843750000000D+01 5.139142637347D-09-1.421131572520D+00
    1.946464180946D-06 1.055329351220D-02 9.786337614059D-06 5.153588026047D+03
    5.111840000000D+05 4.656612873077D-08 2.763107515090D+00-1.341104507446D-07
    9.391334287112D-01 1.790312500000D+02-2.922485186679D+00-8.263201338361D-09
    4.193031799462D-10 1.000000000000D+00 1.658000000000D+03 0.000000000000D+00
    2.000000000000D+00 0.000000000000D+00-1.722946763039D-08 2.000000000000D+01
    5.050380000000D+05 4.000000000000D+00
16 11 10 21 21 59 44.0-2.046353183687D-04-2.160049916711D-12 0.000000000000D+00
    2.300000000000D+01-2.337500000000D+01 4.343038047824D-09 7.971594103292D-01
   -1.152977347374D-06 6.143829668872D-03 4.190951585770D-06 5.153538297653D+03
    5.111840000000D+05 1.117587089539D-07 7.229510182232D-01 1.210719347000D-07
    9.779479105873D-01 3.058125000000D+02-7.030372331227D-02-8.270701650779D-09
    8.750364487804D-11 1.000000000000D+00 1.658000000000D+03 0.000000000000D+00
    2.000000000000D+00 0.000000000000D+00-9.778887033463D-09 2.300000000000D+01
    5.078880000000D+05 4.000000000000D+00
 8 11 10 21 21 59 44.0 3.678724169731D-08 0.000000000000D+00 0.000000000000D+00
    2.700000000000D+01 5.268750000000D+01 3.523718205579D-09 2.842676517413D+00
    2.657994627953D-06 1.215514540672D-02 8.866190910339D-06 5.153745420456D+03
    5.111840000000D+05-1.918524503708D-07-2.713451906163D-01-4.470348358154D-08
    9.973760727168D-01 2.277187500000D+02-3.015724647894D+00-7.533885245132D-09
    2.264380034803D-10 1.000000000000D+00 1.658000000000D+03 0.000000000000D+00
    2.000000000000D+00 0.000000000000D+00-4.190951585770D-09 2.700000000000D+01
    5.090880000000D+05 4.000000000000D+00
 5 11 10 21 22  0  0.0-2.348241396248D-04-5.115907697473D-12 0.000000000000D+00
    5.300000000000D+01 1.800000000000D+01 5.150214527108D-09 5.931958051235D-01
    9.927898645401D-07 2.536144922487D-03 4.956498742104D-06 5.153775447845D+03
    5.112000000000D+05-2.421438694000D-08-2.458013837205D+00-5.401670932770D-08
    9.530060804371D-01 2.755937500000D+02 1.710042203379D-01-8.500711231601D-09
   -1.850077063136D-10 1.000000000000D+00 1.658000000000D+03 0.000000000000D+00
    2.000000000000D+00 0.000000000000D+00-1.024454832077D-08 5.300000000000D+01
    5.106120000000D+05 4.000000000000D+00
